STARLINK-5510           
1 55647U 23021V   26068.74813769  .00000113  00000+0  17236-4 0  9999
2 55647  70.0015 184.1673 0003265 270.0124  90.0661 14.98333238168803
QPS-SAR-15 (SUKUNAMI-I) 
1 67228U 25307A   26067.99718845  .00007522  00000+0  63967-3 0  9993
2 67228  42.0068  57.7223 0008196  56.4325 303.7282 14.98074148 11656
